{"type": "FeatureCollection", "features": [{"type": "Feature", "geometry": {"type": "Polygon", "coordinates": [[[103.763356, 1.3120064], [103.7633559, 1.3119315], [103.7633787, 1.3119315], [103.7633787, 1.3118963], [103.7633955, 1.3118963], [103.7633955, 1.3118686], [103.7636181, 1.3118683], [103.7636181, 1.3118953], [103.763653, 1.3118952], [103.763653, 1.311869], [103.7640596, 1.3118685], [103.764239, 1.3118683], [103.764239, 1.3118963], [103.7642528, 1.3118963], [103.7642528, 1.3119382], [103.7642698, 1.3119382], [103.7642699, 1.3120089], [103.7640261, 1.3120092], [103.7640261, 1.3120209], [103.7639638, 1.312021], [103.7639638, 1.3120101], [103.7639205, 1.3120102], [103.7636271, 1.3120105], [103.7636272, 1.3120273], [103.7636017, 1.3120273], [103.7636017, 1.3120061], [103.763356, 1.3120064]]]}, "properties": {"osm_id": "way_118994826", "type": "way", "version": "4", "timestamp": "2018-05-29T11:50:30Z", "uid": "741163", "user": "JaLooNz", "changeset": "59365536", "addr:city": "Singapore", "addr:country": "SG", "addr:housenumber": "427", "addr:postcode": "120427", "addr:street": "Clementi Avenue 3", "building": "residential", "building:levels": "12", "residential": "HDB", "source": "Bing"}}, {"type": "Feature", "geometry": {"type": "Polygon", "coordinates": [[[103.7628805, 1.3125863], [103.7628804, 1.3125589], [103.7628631, 1.312559], [103.762863, 1.3125184], [103.7628492, 1.3125184], [103.7628489, 1.3124477], [103.7630529, 1.312447], [103.7630528, 1.3124263], [103.7631145, 1.3124261], [103.7631145, 1.3124473], [103.7634673, 1.312446], [103.7634672, 1.3124196], [103.7634973, 1.3124194], [103.7634974, 1.3124461], [103.763759, 1.3124452], [103.7637591, 1.3124644], [103.7637593, 1.3125197], [103.763736, 1.3125198], [103.7637362, 1.3125582], [103.7637206, 1.3125583], [103.7637207, 1.3125825], [103.7635018, 1.3125833], [103.7635017, 1.3125596], [103.7634665, 1.3125597], [103.7634666, 1.3125841], [103.7631476, 1.3125852], [103.7631353, 1.3125853], [103.7631352, 1.3125575], [103.7630937, 1.3125577], [103.7630938, 1.3125855], [103.7628805, 1.3125863]]]}, "properties": {"osm_id": "way_118994828", "type": "way", "version": "4", "timestamp": "2018-05-29T11:50:30Z", "uid": "741163", "user": "JaLooNz", "changeset": "59365536", "addr:city": "Singapore", "addr:country": "SG", "addr:housenumber": "428", "addr:postcode": "120428", "addr:street": "Clementi Avenue 3", "building": "residential", "building:levels": "12", "residential": "HDB", "source": "Bing"}}, {"type": "Feature", "geometry": {"type": "Polygon", "coordinates": [[[103.7641476, 1.3127825], [103.7641388, 1.3127676], [103.7641021, 1.312789], [103.7640921, 1.3127719], [103.7640586, 1.3127914], [103.7640287, 1.3127401], [103.764228, 1.3126241], [103.7642574, 1.3126746], [103.7642282, 1.3126916], [103.7642513, 1.3127312], [103.7642102, 1.3127552], [103.7642045, 1.3127455], [103.7641602, 1.3127713], [103.7641677, 1.312784], [103.7641472, 1.3128333], [103.7641945, 1.312853], [103.7642086, 1.3128192], [103.7642219, 1.3128248], [103.7642293, 1.3128069], [103.7642691, 1.3128234], [103.7641671, 1.3130682], [103.7641206, 1.3130488], [103.76413, 1.3130263], [103.7641168, 1.3130208], [103.7641273, 1.3129956], [103.7641088, 1.3129879], [103.7641136, 1.3129763], [103.7639543, 1.3129099], [103.7639812, 1.3128452], [103.7640493, 1.3128735], [103.7640789, 1.3128026], [103.7641303, 1.312824], [103.7641476, 1.3127825]]]}, "properties": {"osm_id": "way_119879838", "type": "way", "version": "4", "timestamp": "2018-05-29T11:50:30Z", "uid": "741163", "user": "JaLooNz", "changeset": "59365536", "addr:city": "Singapore", "addr:country": "SG", "addr:housename": "Clementi Crest", "addr:housenumber": "445A", "addr:postcode": "121445", "addr:street": "Clementi Avenue 3", "building": "residential", "building:levels": "40", "residential": "HDB", "source": "HDB"}}, {"type": "Feature", "geometry": {"type": "Polygon", "coordinates": [[[103.7642542, 1.3134279], [103.7644651, 1.3129612], [103.7647071, 1.3130706], [103.7646415, 1.3132156], [103.7647156, 1.3132491], [103.7647598, 1.3133482], [103.7646257, 1.3135949], [103.7645371, 1.3136305], [103.7642764, 1.3135144], [103.7642542, 1.3134279]]]}, "properties": {"osm_id": "way_119879841", "type": "way", "version": "6", "timestamp": "2019-11-03T03:04:50Z", "uid": "10373200", "user": "Map3787", "changeset": "76542310", "addr:city": "Singapore", "addr:country": "SG", "addr:housenumber": "448", "addr:postcode": "120448", "addr:street": "Clementi Avenue 3", "building": "public", "roof:colour": "#945752", "roof:material": "roof_tiles"}}, {"type": "Feature", "geometry": {"type": "Polygon", "coordinates": [[[103.7647801, 1.3130571], [103.7646379, 1.3129891], [103.7646962, 1.3128633], [103.7648982, 1.3126556], [103.7650036, 1.3127656], [103.7648177, 1.3129498], [103.7647801, 1.3130571]]]}, "properties": {"osm_id": "way_119879844", "type": "way", "version": "3", "timestamp": "2017-01-01T13:41:25Z", "uid": "741163", "user": "JaLooNz", "changeset": "44822753", "addr:city": "Singapore", "addr:country": "SG", "addr:housenumber": "447", "addr:postcode": "120447", "addr:street": "Clementi Avenue 3", "building": "residential", "residential": "HDB"}}, {"type": "Feature", "geometry": {"type": "Polygon", "coordinates": [[[103.7649797, 1.3141613], [103.7649231, 1.3143087], [103.7647553, 1.3142443], [103.7646138, 1.3138401], [103.7650496, 1.3128921], [103.7652409, 1.3127083], [103.7653486, 1.3128204], [103.7651622, 1.3129994], [103.7647801, 1.3138401], [103.7648951, 1.3141289], [103.7649797, 1.3141613]]]}, "properties": {"osm_id": "way_119879847", "type": "way", "version": "3", "timestamp": "2017-01-01T13:41:25Z", "uid": "741163", "user": "JaLooNz", "changeset": "44822753", "addr:city": "Singapore", "addr:country": "SG", "addr:housenumber": "449", "addr:postcode": "120449", "addr:street": "Clementi Avenue 3", "building": "residential", "residential": "HDB"}}, {"type": "Feature", "geometry": {"type": "Polygon", "coordinates": [[[103.764066, 1.3137378], [103.7641216, 1.3136176], [103.7643868, 1.3137402], [103.7646442, 1.3143799], [103.7645305, 1.3146648], [103.7643945, 1.3147401], [103.7643224, 1.31461], [103.7644256, 1.3145529], [103.7644999, 1.3143815], [103.7642907, 1.3138418], [103.764066, 1.3137378]]]}, "properties": {"osm_id": "way_119879884", "type": "way", "version": "5", "timestamp": "2018-05-29T11:53:36Z", "uid": "741163", "user": "JaLooNz", "changeset": "59365629", "addr:city": "Singapore", "addr:country": "SG", "addr:housenumber": "442", "addr:postcode": "120442", "addr:street": "Clementi Avenue 3", "building": "residential", "residential": "HDB", "roof:colour": "#945752", "roof:material": "roof_tiles"}}, {"type": "Feature", "geometry": {"type": "Polygon", "coordinates": [[[103.7642637, 1.3145802], [103.7640962, 1.3143349], [103.763878, 1.3142286], [103.7636274, 1.3142284], [103.7636275, 1.3138978], [103.7637402, 1.3138972], [103.7637404, 1.3139265], [103.7637743, 1.3139263], [103.7637749, 1.3140425], [103.7637488, 1.3140427], [103.763749, 1.3140649], [103.7636886, 1.3140652], [103.7636887, 1.314088], [103.7638757, 1.314087], [103.7638758, 1.3141067], [103.7639415, 1.3141242], [103.7639523, 1.3141014], [103.7641473, 1.314193], [103.7641349, 1.3142194], [103.7642275, 1.3142613], [103.7643875, 1.3144956], [103.7642637, 1.3145802]]]}, "properties": {"osm_id": "way_119879885", "type": "way", "version": "4", "timestamp": "2018-05-29T11:53:36Z", "uid": "741163", "user": "JaLooNz", "changeset": "59365629", "addr:city": "Singapore", "addr:country": "SG", "addr:housenumber": "443", "addr:postcode": "120443", "addr:street": "Clementi Avenue 3", "building": "residential", "residential": "HDB", "roof:colour": "#945752", "roof:material": "roof_tiles"}}, {"type": "Feature", "geometry": {"type": "Polygon", "coordinates": [[[103.7636496, 1.3136305], [103.7636509, 1.3134079], [103.7638126, 1.3130418], [103.763837, 1.3130493], [103.76385, 1.3130279], [103.7641612, 1.3131679], [103.7639516, 1.3136336], [103.7636496, 1.3136305]]]}, "properties": {"osm_id": "way_119879886", "type": "way", "version": "4", "timestamp": "2018-05-29T11:50:31Z", "uid": "741163", "user": "JaLooNz", "changeset": "59365536", "addr:city": "Singapore", "addr:country": "SG", "addr:housename": "Clementi Crest", "addr:housenumber": "445", "addr:postcode": "120445", "addr:street": "Clementi Avenue 3", "amenity": "parking", "building": "yes", "building:levels": "8", "parking": "multi-storey", "source": "HDB"}}, {"type": "Feature", "geometry": {"type": "Polygon", "coordinates": [[[103.7624516, 1.3129488], [103.7624511, 1.3128721], [103.7624702, 1.3128719], [103.76247, 1.3128385], [103.7624863, 1.3128384], [103.7624861, 1.3128091], [103.7627027, 1.3128075], [103.7627029, 1.3128326], [103.762733, 1.3128324], [103.7627329, 1.3128082], [103.7630682, 1.3128058], [103.7630683, 1.3128285], [103.7630988, 1.3128283], [103.7630987, 1.312807], [103.7631192, 1.3128069], [103.7633129, 1.3128055], [103.7633131, 1.3128352], [103.7633296, 1.3128351], [103.7633299, 1.3128734], [103.7633577, 1.3128732], [103.7633582, 1.3129418], [103.7632964, 1.3129422], [103.7631098, 1.3129436], [103.7631099, 1.3129603], [103.7630522, 1.3129607], [103.7630521, 1.3129446], [103.7627309, 1.3129469], [103.762731, 1.3129704], [103.7626968, 1.3129707], [103.7626967, 1.312947], [103.7624516, 1.3129488]]]}, "properties": {"osm_id": "way_173551098", "type": "way", "version": "3", "timestamp": "2018-05-29T11:50:31Z", "uid": "741163", "user": "JaLooNz", "changeset": "59365536", "addr:city": "Singapore", "addr:country": "SG", "addr:housenumber": "429", "addr:postcode": "120429", "addr:street": "Clementi Avenue 3", "building": "residential", "building:levels": "12", "residential": "HDB", "source": "Bing"}}, {"type": "Feature", "geometry": {"type": "Polygon", "coordinates": [[[103.762194, 1.3132323], [103.7624094, 1.3132338], [103.7624095, 1.3132094], [103.7624549, 1.3132097], [103.7624547, 1.3132326], [103.7627876, 1.3132349], [103.7627878, 1.3132028], [103.7628096, 1.3132029], [103.7628094, 1.3132335], [103.763051, 1.3132351], [103.7630505, 1.3133109], [103.7630365, 1.3133108], [103.7630362, 1.3133552], [103.7630273, 1.3133552], [103.763027, 1.3133875], [103.7622324, 1.3133821], [103.7622326, 1.3133529], [103.762212, 1.3133527], [103.7622123, 1.3133067], [103.7621935, 1.3133066], [103.762194, 1.3132323]]]}, "properties": {"osm_id": "way_173551099", "type": "way", "version": "2", "timestamp": "2018-05-29T11:50:32Z", "uid": "741163", "user": "JaLooNz", "changeset": "59365536", "addr:city": "Singapore", "addr:country": "SG", "addr:housenumber": "430", "addr:postcode": "120430", "addr:street": "Clementi Avenue 3", "building": "residential", "building:levels": "12", "residential": "HDB", "source": "Bing"}}, {"type": "Feature", "geometry": {"type": "Polygon", "coordinates": [[[103.7631786, 1.31347], [103.7631762, 1.3132189], [103.7633005, 1.3132177], [103.7633143, 1.3132219], [103.763309, 1.3134224], [103.7633324, 1.3134224], [103.7633324, 1.3134526], [103.7633096, 1.3134526], [103.763309, 1.3135062], [103.7630916, 1.3137264], [103.7629121, 1.3137269], [103.7628169, 1.3138208], [103.7625861, 1.3138213], [103.7625841, 1.3138481], [103.7625586, 1.3138481], [103.7625573, 1.3138226], [103.7622864, 1.3138139], [103.76195, 1.3138153], [103.7618928, 1.3137656], [103.7618706, 1.3137884], [103.7618498, 1.3137703], [103.7618713, 1.3137462], [103.7618432, 1.3137178], [103.7618378, 1.3134264], [103.7618753, 1.3133922], [103.7618485, 1.3133627], [103.7618673, 1.3133453], [103.7618948, 1.3133728], [103.7619457, 1.3133272], [103.7621127, 1.3133259], [103.7621094, 1.3134505], [103.7620959, 1.3134505], [103.7620953, 1.3134693], [103.7620128, 1.3134693], [103.7619907, 1.3134934], [103.7619826, 1.3136624], [103.7620081, 1.3136892], [103.7622917, 1.3136906], [103.7627622, 1.3136943], [103.7628348, 1.3136235], [103.7629654, 1.3136244], [103.7629656, 1.3136038], [103.7630406, 1.3136044], [103.7631786, 1.31347]]]}, "properties": {"osm_id": "way_173551100", "type": "way", "version": "4", "timestamp": "2018-05-29T11:50:32Z", "uid": "741163", "user": "JaLooNz", "changeset": "59365536", "addr:city": "Singapore", "addr:country": "SG", "addr:housenumber": "431", "addr:postcode": "120431", "addr:street": "Clementi Avenue 3", "building": "residential", "building:levels": "4", "residential": "HDB", "source": "Bing"}}, {"type": "Feature", "geometry": {"type": "Polygon", "coordinates": [[[103.7639467, 1.31397], [103.7639996, 1.3138584], [103.7641487, 1.313929], [103.7640958, 1.3140406], [103.7639467, 1.31397]]]}, "properties": {"osm_id": "way_173551161", "type": "way", "version": "1", "timestamp": "2012-07-30T03:17:46Z", "uid": "741163", "user": "JaLooNz", "changeset": "12542803", "building": "yes", "source": "Bing"}}, {"type": "Feature", "geometry": {"type": "Polygon", "coordinates": [[[103.7614994, 1.3118483], [103.7614674, 1.3117719], [103.7614802, 1.3117666], [103.7614637, 1.3117271], [103.7614779, 1.3117212], [103.7614681, 1.3116977], [103.7616563, 1.311619], [103.7616654, 1.3116408], [103.7616938, 1.3116289], [103.7616858, 1.3116097], [103.7619819, 1.311486], [103.7619919, 1.3115098], [103.762025, 1.3114959], [103.762016, 1.3114743], [103.7621015, 1.3114386], [103.762111, 1.3114614], [103.7621254, 1.3114554], [103.7621444, 1.3115009], [103.7621601, 1.3114943], [103.7621891, 1.3115636], [103.7620788, 1.3116097], [103.7620869, 1.311629], [103.7620644, 1.3116384], [103.7620556, 1.3116173], [103.761778, 1.3117333], [103.7617847, 1.3117491], [103.7617342, 1.3117701], [103.7617271, 1.3117532], [103.7614994, 1.3118483]]]}, "properties": {"osm_id": "way_173552215", "type": "way", "version": "3", "timestamp": "2018-06-07T09:58:48Z", "uid": "741163", "user": "JaLooNz", "changeset": "59631384", "addr:city": "Singapore", "addr:country": "SG", "addr:housenumber": "508", "addr:postcode": "120508", "addr:street": "West Coast Drive", "building": "residential", "building:levels": "14", "residential": "HDB"}}, {"type": "Feature", "geometry": {"type": "Polygon", "coordinates": [[[103.7652423, 1.3119533], [103.7652595, 1.3119703], [103.7649671, 1.3122666], [103.7647616, 1.3120639], [103.7647764, 1.3120489], [103.7648054, 1.3120195], [103.7647808, 1.3119952], [103.7650683, 1.3117039], [103.7652812, 1.3119139], [103.7652423, 1.3119533]]]}, "properties": {"osm_id": "way_432868544", "type": "way", "version": "6", "timestamp": "2019-09-26T09:30:27Z", "uid": "10191168", "user": "sgsg65", "changeset": "74947188", "addr:city": "Singapore", "addr:country": "SG", "addr:housenumber": "321", "addr:postcode": "120321", "addr:street": "Clementi Avenue 3", "building": "commercial", "building:colour": "#626C6C", "building:levels": "4", "building:material": "glass", "description": "Cinema and mini mall", "name": "Clementi 321", "shop": "mall"}}, {"type": "Feature", "geometry": {"type": "Polygon", "coordinates": [[[103.7647147, 1.3124016], [103.7648158, 1.3123015], [103.7651381, 1.3126268], [103.765037, 1.3127269], [103.7647147, 1.3124016]]]}, "properties": {"osm_id": "way_432868545", "type": "way", "version": "3", "timestamp": "2019-04-11T16:10:12Z", "uid": "9467992", "user": "BlueRanger", "changeset": "69120410", "addr:city": "Singapore", "addr:country": "SG", "addr:housenumber": "446", "addr:postcode": "120446", "addr:street": "Clementi Avenue 3", "building": "residential", "building:levels": "4", "residential": "HDB"}}, {"type": "Feature", "geometry": {"type": "Polygon", "coordinates": [[[103.7644876, 1.312599], [103.7644454, 1.3125211], [103.7643782, 1.3125575], [103.7643619, 1.3125274], [103.7643284, 1.3125455], [103.7643037, 1.3125], [103.7645057, 1.3123907], [103.7645294, 1.3124346], [103.7644926, 1.3124545], [103.7645037, 1.3124749], [103.7645153, 1.3124686], [103.7645289, 1.3124938], [103.7645157, 1.3125009], [103.7645507, 1.3125656], [103.7645065, 1.3125902], [103.7645124, 1.3125986], [103.7645501, 1.3126164], [103.7645747, 1.3125644], [103.7645983, 1.3125756], [103.7646028, 1.3125661], [103.7646236, 1.3125758], [103.764635, 1.3125517], [103.7646466, 1.3125572], [103.7646592, 1.3125307], [103.7647006, 1.3125503], [103.764586, 1.3127926], [103.7645491, 1.3127751], [103.7645591, 1.312754], [103.7645431, 1.3127464], [103.7645556, 1.3127199], [103.7645355, 1.3127104], [103.7645657, 1.3126465], [103.7645443, 1.3126364], [103.7645391, 1.3126339], [103.7645191, 1.3126762], [103.7644923, 1.3126636], [103.764486, 1.3126768], [103.7644587, 1.3126639], [103.7644523, 1.3126775], [103.7643779, 1.3126423], [103.7643963, 1.3126034], [103.7644075, 1.3126088], [103.7644147, 1.3125937], [103.7644389, 1.3126051], [103.7644493, 1.3125831], [103.7644867, 1.3126008], [103.7644876, 1.312599]]]}, "properties": {"osm_id": "way_445015411", "type": "way", "version": "2", "timestamp": "2018-05-29T11:50:38Z", "uid": "741163", "user": "JaLooNz", "changeset": "59365536", "addr:city": "Singapore", "addr:country": "SG", "addr:housename": "Clementi Crest", "addr:housenumber": "445B", "addr:postcode": "122445", "addr:street": "Clementi Avenue 3", "building": "residential", "building:levels": "40", "residential": "HDB", "source": "HDB"}}], "name": "sample building"}